{
  "type": "FeatureCollection",
  "name": "서울월드컵경기장 콘서트 데모",
  "status": "DEMO_DRAFT_NOT_SURVEYED",
  "features": [
    {
      "type": "Feature",
      "id": "aa9d260d-0125-5c81-a99c-4cd24d0ae015",
      "properties": {
        "id": "aa9d260d-0125-5c81-a99c-4cd24d0ae015",
        "key": "A",
        "name": "플로어 A",
        "color": "#58d6b1",
        "areaSquareMeters": 600
      },
      "geometry": {
        "type": "Polygon",
        "coordinates": [
          [
            [
              126.896904023,
              37.568274801
            ],
            [
              126.897179186,
              37.568222218
            ],
            [
              126.897242605,
              37.568432483
            ],
            [
              126.896967441,
              37.568485066
            ],
            [
              126.896904023,
              37.568274801
            ]
          ]
        ]
      }
    },
    {
      "type": "Feature",
      "id": "42a03226-5e72-56ab-a513-467f26178744",
      "properties": {
        "id": "42a03226-5e72-56ab-a513-467f26178744",
        "key": "B",
        "name": "플로어 B",
        "color": "#6fa7ff",
        "areaSquareMeters": 600
      },
      "geometry": {
        "type": "Polygon",
        "coordinates": [
          [
            [
              126.897267238,
              37.568205392
            ],
            [
              126.897542401,
              37.568152808
            ],
            [
              126.89760582,
              37.568363072
            ],
            [
              126.897330657,
              37.568415656
            ],
            [
              126.897267238,
              37.568205392
            ]
          ]
        ]
      }
    },
    {
      "type": "Feature",
      "id": "42a2eb18-ce7f-5e51-8e12-34ded6ad0562",
      "properties": {
        "id": "42a2eb18-ce7f-5e51-8e12-34ded6ad0562",
        "key": "C",
        "name": "플로어 C",
        "color": "#c29af0",
        "areaSquareMeters": 575
      },
      "geometry": {
        "type": "Polygon",
        "coordinates": [
          [
            [
              126.896822109,
              37.56800321
            ],
            [
              126.897097271,
              37.567950627
            ],
            [
              126.897158047,
              37.56815213
            ],
            [
              126.896882884,
              37.568204713
            ],
            [
              126.896822109,
              37.56800321
            ]
          ]
        ]
      }
    },
    {
      "type": "Feature",
      "id": "3c740f3a-b17d-51fd-a5c4-79a7df980e20",
      "properties": {
        "id": "3c740f3a-b17d-51fd-a5c4-79a7df980e20",
        "key": "D",
        "name": "플로어 D",
        "color": "#dfbd6b",
        "areaSquareMeters": 575
      },
      "geometry": {
        "type": "Polygon",
        "coordinates": [
          [
            [
              126.897185323,
              37.5679338
            ],
            [
              126.897460485,
              37.567881217
            ],
            [
              126.897521261,
              37.56808272
            ],
            [
              126.897246099,
              37.568135304
            ],
            [
              126.897185323,
              37.5679338
            ]
          ]
        ]
      }
    },
    {
      "type": "Feature",
      "id": "d939b2ca-e205-5b3f-832e-b2b78a8bd4fe",
      "properties": {
        "id": "d939b2ca-e205-5b3f-832e-b2b78a8bd4fe",
        "key": "STAGE",
        "name": "무대·백스테이지",
        "color": "#f08783",
        "areaSquareMeters": 950
      },
      "geometry": {
        "type": "Polygon",
        "coordinates": [
          [
            [
              126.897029964,
              37.56853798
            ],
            [
              126.897580291,
              37.568432812
            ],
            [
              126.897630499,
              37.568599272
            ],
            [
              126.89708017,
              37.568704439
            ],
            [
              126.897029964,
              37.56853798
            ]
          ]
        ]
      }
    },
    {
      "type": "Feature",
      "id": "d4c89036-ca9c-59bc-9c1e-3c6afb0e93e3",
      "properties": {
        "id": "d4c89036-ca9c-59bc-9c1e-3c6afb0e93e3",
        "key": "FOH",
        "name": "음향·조명 운영",
        "color": "#70cbdc",
        "areaSquareMeters": 154
      },
      "geometry": {
        "type": "Polygon",
        "coordinates": [
          [
            [
              126.897019331,
              37.567808
            ],
            [
              126.897173421,
              37.567778553
            ],
            [
              126.897202488,
              37.567874924
            ],
            [
              126.897048397,
              37.567904371
            ],
            [
              126.897019331,
              37.567808
            ]
          ]
        ]
      }
    },
    {
      "type": "Feature",
      "id": "beaeddd6-4674-5ca2-ae39-d64e974a496c",
      "properties": {
        "name": "데모 서측 입장",
        "kind": "GATE",
        "zoneId": null
      },
      "geometry": {
        "type": "Point",
        "coordinates": [
          126.896732726,
          37.567899833
        ]
      }
    },
    {
      "type": "Feature",
      "id": "5a5d06c9-9275-56a6-90d7-b1849d51896a",
      "properties": {
        "name": "데모 동측 입장",
        "kind": "GATE",
        "zoneId": null
      },
      "geometry": {
        "type": "Point",
        "coordinates": [
          126.897481165,
          37.567756807
        ]
      }
    },
    {
      "type": "Feature",
      "id": "8b74a45d-854f-5b4a-8cbd-1695ec96f8c9",
      "properties": {
        "name": "데모 운영 진입",
        "kind": "GATE",
        "zoneId": "d939b2ca-e205-5b3f-832e-b2b78a8bd4fe"
      },
      "geometry": {
        "type": "Point",
        "coordinates": [
          126.8969767,
          37.568631552
        ]
      }
    }
  ]
}
